{"fetched_at":"2026-07-19T07:04:58.285Z","source":"https://celestrak.org/NORAD/elements/gp.php?GROUP=stations&FORMAT=JSON","constellation":"tiangong","records":[{"OBJECT_NAME":"CSS (TIANHE)","OBJECT_ID":"2021-035A","EPOCH":"2026-07-18T20:50:29.010048","CLASSIFICATION_TYPE":"U","MEAN_MOTION":15.58184623,"ECCENTRICITY":0.0002055,"INCLINATION":41.4683,"RA_OF_ASC_NODE":129.5686,"ARG_OF_PERICENTER":305.4241,"MEAN_ANOMALY":54.6405,"EPHEMERIS_TYPE":0,"NORAD_CAT_ID":48274,"ELEMENT_SET_NO":999,"REV_AT_EPOCH":29811,"BSTAR":0.00015417,"MEAN_MOTION_DOT":0.00011657,"MEAN_MOTION_DDOT":0}]}
